STARLINK-2172
1 17755C 21017AK  21326.12047083  .00005743  00000-0  38479-3 0  3265
2 17755  53.0535  48.2124 0001306  83.6233 152.5024 15.06392466    19
